<?xml version="1.0" encoding="UTF-8" standalone="yes" ?>
<kml xmlns="http://earth.google.com/kml/2.0">
<Document>
	<name>PERIMETRO</name>
	<description><![CDATA[Powered by Neyton<br/>http://tbn2.blogspot.com/]]></description>
	<visibility>1</visibility>
	<open>1</open>
	<Style id="icones">
		<IconStyle>
			<Icon>
				<href>http://maps.google.com/mapfiles/kml/pal4/icon24.png</href>
			</Icon>
		</IconStyle>
	</Style>

	<Style id="0">
		<LineStyle id="l0LineStyle">
			<color>ffFFFFFF</color>
		</LineStyle>
		<PolyStyle id="p0PolyStyle">
			<color>7fFFFFFF</color>
			<fill>1</fill>
			<outline>1</outline>
		</PolyStyle>
	</Style>

	<Folder>
		<name>0</name>
		<visibility>1</visibility>
		<open>0</open>

		<Placemark>
			<name>2A6</name>
			<description><![CDATA[]]></description>
			<styleUrl>#0</styleUrl>
			<Polygon>
				<tessellate>1</tessellate>
				<outerBoundaryIs>					<LinearRing>
				<coordinates>
					-50.22769167363420,-15.70542729382104,0.000
					-50.22668917363930,-15.70555618382322,0.000
					-50.22625361364146,-15.70548785382367,0.000
					-50.22495583364817,-15.70583340382722,0.000
					-50.22541556364623,-15.70686174383057,0.000
					-50.22801139363560,-15.71353590385293,0.000
					-50.22739056363910,-15.71445618385762,0.000
					-50.22699333364125,-15.71485590385988,0.000
					-50.22649472364404,-15.71559674386368,0.000
					-50.22639917364483,-15.71636979386692,0.000
					-50.22628972364537,-15.71632701386693,0.000
					-50.22610694364633,-15.71643979386769,0.000
					-50.22588000364763,-15.71681507386957,0.000
					-50.22570472364852,-15.71685479387003,0.000
					-50.22587472364771,-15.71699674387030,0.000
					-50.22578194364830,-15.71728257387160,0.000
					-50.22588639364787,-15.71756479387256,0.000
					-50.22545194365009,-15.71766285387367,0.000
					-50.22570389364889,-15.71785201387401,0.000
					-50.22561528364943,-15.71807118387504,0.000
					-50.22528806365107,-15.71803618387544,0.000
					-50.22530083365108,-15.71820951387612,0.000
					-50.22523611365142,-15.71825979387643,0.000
					-50.22498389365275,-15.71844340387757,0.000
					-50.22421417365669,-15.71852229387918,0.000
					-50.22326500366140,-15.71824674387968,0.000
					-50.22229833366609,-15.71773813387928,0.000
					-50.22083722367335,-15.71735757388023,0.000
					-50.22010694367700,-15.71722090388094,0.000
					-50.21943750368039,-15.71724868388221,0.000
					-50.21824472368657,-15.71756396388551,0.000
					-50.21813556368713,-15.71761035388588,0.000
					-50.21784389368868,-15.71783590388729,0.000
					-50.21723167369207,-15.71857174389129,0.000
					-50.21600139369894,-15.72018896389988,0.000
					-50.21534083370298,-15.72200618390830,0.000
					-50.21411889370974,-15.72350951391645,0.000
					-50.21343500371364,-15.72462118392209,0.000
					-50.21870222368832,-15.72831813392769,0.000
					-50.21883583368770,-15.72841396392785,0.000
					-50.22230500367101,-15.73084701393165,0.000
					-50.22756500364633,-15.73611257394387,0.000
					-50.22758611364623,-15.73611785394386,0.000
					-50.23571667360596,-15.73850368394015,0.000
					-50.23580194360556,-15.73855646394022,0.000
					-50.23563528360644,-15.73869285394103,0.000
					-50.23549889360722,-15.73891563394214,0.000
					-50.23569333360629,-15.73904813394235,0.000
					-50.23567556360641,-15.73915924394283,0.000
					-50.23531139360831,-15.73928729394392,0.000
					-50.23512639360932,-15.73950618394508,0.000
					-50.23501778360990,-15.73956174394548,0.000
					-50.23494583361043,-15.73998618394730,0.000
					-50.23459667361231,-15.74031507394918,0.000
					-50.23514889360947,-15.74017896394773,0.000
					-50.23520444360923,-15.74032507394824,0.000
					-50.23534083360880,-15.74102896395083,0.000
					-50.23501278361053,-15.74119618395202,0.000
					-50.23468472361227,-15.74143590395350,0.000
					-50.23459750361269,-15.74139479395348,0.000
					-50.23441083361377,-15.74171229395505,0.000
					-50.23423472361464,-15.74165951395512,0.000
					-50.23425611361446,-15.74145535395428,0.000
					-50.23397694361575,-15.74115979395354,0.000
					-50.23371972361720,-15.74151174395536,0.000
					-50.23362861361761,-15.74141674395513,0.000
					-50.23352389361829,-15.74178479395677,0.000
					-50.23332472361931,-15.74180646395717,0.000
					-50.23319556361995,-15.74179090395732,0.000
					-50.23336111361925,-15.74221563395876,0.000
					-50.23304500362105,-15.74273563396135,0.000
					-50.23308222362101,-15.74305674396257,0.000
					-50.23332528361977,-15.74302257396203,0.000
					-50.23325028362020,-15.74324646396305,0.000
					-50.23341111361944,-15.74338590396335,0.000
					-50.23362778361843,-15.74355368396366,0.000
					-50.23360972361856,-15.74368340396421,0.000
					-50.23335528361986,-15.74370201396470,0.000
					-50.23343222361955,-15.74393174396549,0.000
					-50.23376306361790,-15.74401590396530,0.000
					-50.23416639361580,-15.74386674396404,0.000
					-50.23434222361518,-15.74457368396658,0.000
					-50.23431500361539,-15.74472257396723,0.000
					-50.23457167361411,-15.74481340396717,0.000
					-50.23461278361396,-15.74502618396796,0.000
					-50.23472000361354,-15.74534507396907,0.000
					-50.23510167361164,-15.74541868396874,0.000
					-50.23537528361038,-15.74573951396958,0.000
					-50.23543694361028,-15.74629090397169,0.000
					-50.23573306360888,-15.74655146397225,0.000
					-50.23576056360885,-15.74686368397345,0.000
					-50.23811028359505,-15.74169535394908,0.000
					-50.23786139359626,-15.74158896394905,0.000
					-50.23943167358706,-15.73812118393271,0.000
					-50.23717139359750,-15.73549118392579,0.000
					-50.23709778359783,-15.73537340392543,0.000
					-50.23689000359876,-15.73502674392439,0.000
					-50.23674611359937,-15.73473618392345,0.000
					-50.23735278359628,-15.73467563392223,0.000
					-50.23776333359398,-15.73405896391913,0.000
					-50.23880806358878,-15.73428507391838,0.000
					-50.23877056358881,-15.73383368391663,0.000
					-50.23925722358630,-15.73370507391535,0.000
					-50.23911194358696,-15.73347146391465,0.000
					-50.23908361358687,-15.73285674391224,0.000
					-50.23925528358598,-15.73280507391175,0.000
					-50.23934278358543,-15.73248701391035,0.000
					-50.23959222358425,-15.73270118391081,0.000
					-50.23988722358273,-15.73264063391011,0.000
					-50.24013083358125,-15.73194840390696,0.000
					-50.24058944357883,-15.73166396390510,0.000
					-50.24050250357911,-15.73121813390346,0.000
					-50.24113806357580,-15.73096201390143,0.000
					-50.24122194357533,-15.73084063390082,0.000
					-50.24117056357553,-15.73067646390023,0.000
					-50.24080472357733,-15.73052896390024,0.000
					-50.24106278357590,-15.73020674389854,0.000
					-50.24093861357642,-15.72993201389765,0.000
					-50.24129000357466,-15.72994424389714,0.000
					-50.24120750357497,-15.72966674389615,0.000
					-50.24135361357421,-15.72964257389584,0.000
					-50.24185083357155,-15.72920590389332,0.000
					-50.24158528357283,-15.72900729389293,0.000
					-50.24149361357334,-15.72918757389380,0.000
					-50.24115917357508,-15.72924729389456,0.000
					-50.24088194357640,-15.72909229389438,0.000
					-50.24093833357603,-15.72886285389337,0.000
					-50.24092056357594,-15.72835896389138,0.000
					-50.24110194357483,-15.72781701388894,0.000
					-50.24075528357642,-15.72739507388780,0.000
					-50.24125917357367,-15.72685229388484,0.000
					-50.24082333357587,-15.72683479388544,0.000
					-50.24100694357490,-15.72672451388472,0.000
					-50.24099222357484,-15.72637590388335,0.000
					-50.24102083357461,-15.72614007388236,0.000
					-50.24121139357353,-15.72582035388079,0.000
					-50.24115056357374,-15.72557285387989,0.000
					-50.23909500358366,-15.72435479387827,0.000
					-50.23957472358034,-15.72188313386763,0.000
					-50.24156694357043,-15.72224257386594,0.000
					-50.24141917357083,-15.72133424386254,0.000
					-50.24175611356844,-15.71946896385456,0.000
					-50.23760167358895,-15.71827035385631,0.000
					-50.23124583362039,-15.71654951385965,0.000
					-50.23115528362084,-15.71650451385962,0.000
					-50.23224778361445,-15.71413951384838,0.000
					-50.23440778360267,-15.71180813383558,0.000
					-50.23516556359859,-15.71110479383156,0.000
					-50.22907083362760,-15.70644813382284,0.000
					-50.22769167363420,-15.70542729382104,0.000
				</coordinates>
				<altitudeMode>clampedToGround</altitudeMode>
					</LinearRing>
				</outerBoundaryIs>			</Polygon>
		</Placemark>

	</Folder>

</Document>
</kml>
